{"type": "FeatureCollection", "features": [ {"type": "Feature", "properties": {"norad_id": 38779, "name": "GSAT-10 (GAGAN/PRN 128)", "group": "gnss", "lat": -0.06066442933930921, "lon": -121.70037435722325, "alt_km": 35788.407703122, "timestamp": "2025-12-11T05:00:26.551740+00:00", "meta": {"OBJECT_NAME": "GSAT-10 (GAGAN/PRN 128)", "OBJECT_ID": "2012-051B", "EPOCH": "2025-12-10T19:56:55.684320", "MEAN_MOTION": 1.00272909, "ECCENTRICITY": 0.00024548, "INCLINATION": 0.0942, "RA_OF_ASC_NODE": 266.4246, "ARG_OF_PERICENTER": 227.4138, "MEAN_ANOMALY": 328.1858, "EPHEMERIS_TYPE": 0, "CLASSIFICATION_TYPE": "U", "NORAD_CAT_ID": 38779, "ELEMENT_SET_NO": 999, "REV_AT_EPOCH": 4821, "BSTAR": 0, "MEAN_MOTION_DOT": -1.6e-06, "MEAN_MOTION_DDOT": 0}, "tle": {"line1": "1 38779U 12051B   25344.83120005 -.00000160  00000+0  00000+0 0  9996", "line2": "2 38779   0.0942 266.4246 0002454 227.4138 328.1858  1.00272909 48213"}}, "geometry": {"type": "Point", "coordinates": [-121.70037435722325, -0.06066442933930921]}}, {"type": "Feature", "properties": {"norad_id": 38833, "name": "GPS BIIF-3  (PRN 24)", "group": "gnss", "lat": -51.10796765828975, "lon": 37.659734934046234, "alt_km": 20644.864559994538, "timestamp": "2025-12-11T05:00:26.551754+00:00", "meta": {"OBJECT_NAME": "GPS BIIF-3  (PRN 24)", "OBJECT_ID": "2012-053A", "EPOCH": "2025-12-09T20:38:00.572640", "MEAN_MOTION": 2.00564945, "ECCENTRICITY": 0.0175755, "INCLINATION": 53.5569, "RA_OF_ASC_NODE": 151.3565, "ARG_OF_PERICENTER": 63.953, "MEAN_ANOMALY": 297.8432, "EPHEMERIS_TYPE": 0, "CLASSIFICATION_TYPE": "U", "NORAD_CAT_ID": 38833, "ELEMENT_SET_NO": 999, "REV_AT_EPOCH": 9564, "BSTAR": 0, "MEAN_MOTION_DOT": 6.8e-07, "MEAN_MOTION_DDOT": 0}, "tle": {"line1": "1 38833U 12053A   25343.85972885  .00000068  00000+0  00000+0 0  9997", "line2": "2 38833  53.5569 151.3565 0175755  63.9530 297.8432  2.00564945 95646"}}, "geometry": {"type": "Point", "coordinates": [37.659734934046234, -51.10796765828975]}}, {"type": "Feature", "properties": {"norad_id": 38857, "name": "GSAT0103 (GALILEO-FM3)", "group": "gnss", "lat": 13.82080314080081, "lon": 116.35944941796949, "alt_km": 23223.103993407294, "timestamp": "2025-12-11T05:00:26.551767+00:00", "meta": {"OBJECT_NAME": "GSAT0103 (GALILEO-FM3)", "OBJECT_ID": "2012-055A", "EPOCH": "2025-12-10T14:16:18.944544", "MEAN_MOTION": 1.70473311, "ECCENTRICITY": 0.00025926, "INCLINATION": 55.6913, "RA_OF_ASC_NODE": 106.7254, "ARG_OF_PERICENTER": 268.6178, "MEAN_ANOMALY": 91.322, "EPHEMERIS_TYPE": 0, "CLASSIFICATION_TYPE": "U", "NORAD_CAT_ID": 38857, "ELEMENT_SET_NO": 999, "REV_AT_EPOCH": 8179, "BSTAR": 0, "MEAN_MOTION_DOT": 1.1e-07, "MEAN_MOTION_DDOT": 0}, "tle": {"line1": "1 38857U 12055A   25344.59466371  .00000011  00000+0  00000+0 0  9993", "line2": "2 38857  55.6913 106.7254 0002592 268.6178  91.3220  1.70473311 81792"}}, "geometry": {"type": "Point", "coordinates": [116.35944941796949, 13.82080314080081]}}, {"type": "Feature", "properties": {"norad_id": 38953, "name": "BEIDOU-2 G6 (C02)", "group": "gnss", "lat": 1.0879889359529185, "lon": -120.7313196237553, "alt_km": 35805.209273070606, "timestamp": "2025-12-11T05:00:26.551781+00:00", "meta": {"OBJECT_NAME": "BEIDOU-2 G6 (C02)", "OBJECT_ID": "2012-059A", "EPOCH": "2025-12-10T20:47:26.920320", "MEAN_MOTION": 1.0026968, "ECCENTRICITY": 0.0007636, "INCLINATION": 3.9445, "RA_OF_ASC_NODE": 75.5197, "ARG_OF_PERICENTER": 289.1731, "MEAN_ANOMALY": 111.0256, "EPHEMERIS_TYPE": 0, "CLASSIFICATION_TYPE": "U", "NORAD_CAT_ID": 38953, "ELEMENT_SET_NO": 999, "REV_AT_EPOCH": 4802, "BSTAR": 0, "MEAN_MOTION_DOT": -1.7e-06, "MEAN_MOTION_DDOT": 0}, "tle": {"line1": "1 38953U 12059A   25344.86628380 -.00000170  00000+0  00000+0 0  9991", "line2": "2 38953   3.9445  75.5197 0007636 289.1731 111.0256  1.00269680 48024"}}, "geometry": {"type": "Point", "coordinates": [-120.7313196237553, 1.0879889359529185]}}, {"type": "Feature", "properties": {"norad_id": 38977, "name": "LUCH 5B (SDCM/PRN 125)", "group": "gnss", "lat": 10.076433250419196, "lon": 138.8189052910429, "alt_km": 35792.72247509152, "timestamp": "2025-12-11T05:00:26.551793+00:00", "meta": {"OBJECT_NAME": "LUCH 5B (SDCM/PRN 125)", "OBJECT_ID": "2012-061A", "EPOCH": "2025-12-10T10:02:31.223616", "MEAN_MOTION": 1.00272215, "ECCENTRICITY": 0.00073337, "INCLINATION": 10.0769, "RA_OF_ASC_NODE": 51.7289, "ARG_OF_PERICENTER": 192.0476, "MEAN_ANOMALY": 329.9043, "EPHEMERIS_TYPE": 0, "CLASSIFICATION_TYPE": "U", "NORAD_CAT_ID": 38977, "ELEMENT_SET_NO": 999, "REV_AT_EPOCH": 4771, "BSTAR": 0, "MEAN_MOTION_DOT": -1.37e-06, "MEAN_MOTION_DDOT": 0}, "tle": {"line1": "1 38977U 12061A   25344.41841694 -.00000137  00000+0  00000+0 0  9999", "line2": "2 38977  10.0769  51.7289 0007333 192.0476 329.9043  1.00272215 47715"}}, "geometry": {"type": "Point", "coordinates": [138.8189052910429, 10.076433250419196]}}, {"type": "Feature", "properties": {"norad_id": 39155, "name": "COSMOS 2485 (747)", "group": "gnss", "lat": 1.5053818027847805, "lon": 80.61529713992367, "alt_km": 19172.502062941025, "timestamp": "2025-12-11T05:00:26.551804+00:00", "meta": {"OBJECT_NAME": "COSMOS 2485 (747)", "OBJECT_ID": "2013-019A", "EPOCH": "2025-12-10T17:41:35.437344", "MEAN_MOTION": 2.13102878, "ECCENTRICITY": 0.00245732, "INCLINATION": 65.3124, "RA_OF_ASC_NODE": 79.9346, "ARG_OF_PERICENTER": 229.2052, "MEAN_ANOMALY": 130.5984, "EPHEMERIS_TYPE": 0, "CLASSIFICATION_TYPE": "U", "NORAD_CAT_ID": 39155, "ELEMENT_SET_NO": 999, "REV_AT_EPOCH": 9826, "BSTAR": 0, "MEAN_MOTION_DOT": -2.2e-07, "MEAN_MOTION_DDOT": 0}, "tle": {"line1": "1 39155U 13019A   25344.73721571 -.00000022  00000+0  00000+0 0  9991", "line2": "2 39155  65.3124  79.9346 0024573 229.2052 130.5984  2.13102878 98264"}}, "geometry": {"type": "Point", "coordinates": [80.61529713992367, 1.5053818027847805]}}, {"type": "Feature", "properties": {"norad_id": 39166, "name": "GPS BIIF-4  (PRN 27)", "group": "gnss", "lat": -6.4609963794361915, "lon": -87.98612750865136, "alt_km": 19977.936844199474, "timestamp": "2025-12-11T05:00:26.551815+00:00", "meta": {"OBJECT_NAME": "GPS BIIF-4  (PRN 27)", "OBJECT_ID": "2013-023A", "EPOCH": "2025-12-10T05:20:05.649504", "MEAN_MOTION": 2.00565116, "ECCENTRICITY": 0.0137742, "INCLINATION": 54.6542, "RA_OF_ASC_NODE": 276.6706, "ARG_OF_PERICENTER": 48.5869, "MEAN_ANOMALY": 312.6037, "EPHEMERIS_TYPE": 0, "CLASSIFICATION_TYPE": "U", "NORAD_CAT_ID": 39166, "ELEMENT_SET_NO": 999, "REV_AT_EPOCH": 9209, "BSTAR": 0, "MEAN_MOTION_DOT": -5.9e-07, "MEAN_MOTION_DDOT": 0}, "tle": {"line1": "1 39166U 13023A   25344.22228761 -.00000059  00000+0  00000+0 0  9995", "line2": "2 39166  54.6542 276.6706 0137742  48.5869 312.6037  2.00565116 92099"}}, "geometry": {"type": "Point", "coordinates": [-87.98612750865136, -6.4609963794361915]}}, {"type": "Feature", "properties": {"norad_id": 39199, "name": "IRNSS-1A", "group": "gnss", "lat": 19.901105283567855, "lon": -144.13810534938608, "alt_km": 35712.6985286864, "timestamp": "2025-12-11T05:00:26.551826+00:00", "meta": {"OBJECT_NAME": "IRNSS-1A", "OBJECT_ID": "2013-034A", "EPOCH": "2025-12-02T19:49:26.431104", "MEAN_MOTION": 1.00279053, "ECCENTRICITY": 0.00216608, "INCLINATION": 35.2852, "RA_OF_ASC_NODE": 66.6964, "ARG_OF_PERICENTER": 185.4059, "MEAN_ANOMALY": 172.3398, "EPHEMERIS_TYPE": 0, "CLASSIFICATION_TYPE": "U", "NORAD_CAT_ID": 39199, "ELEMENT_SET_NO": 999, "REV_AT_EPOCH": 4539, "BSTAR": 0, "MEAN_MOTION_DOT": 6.5e-07, "MEAN_MOTION_DDOT": 0}, "tle": {"line1": "1 39199U 13034A   25336.82600036  .00000065  00000+0  00000+0 0  9995", "line2": "2 39199  35.2852  66.6964 0021660 185.4059 172.3398  1.00279053 45393"}}, "geometry": {"type": "Point", "coordinates": [-144.13810534938608, 19.901105283567855]}}, {"type": "Feature", "properties": {"norad_id": 39533, "name": "GPS BIIF-5  (PRN 30)", "group": "gnss", "lat": -2.8006916594430087, "lon": 154.91416450732635, "alt_km": 20316.10813315083, "timestamp": "2025-12-11T05:00:26.551838+00:00", "meta": {"OBJECT_NAME": "GPS BIIF-5  (PRN 30)", "OBJECT_ID": "2014-008A", "EPOCH": "2025-12-10T17:09:32.568192", "MEAN_MOTION": 2.00574306, "ECCENTRICITY": 0.00791586, "INCLINATION": 53.631, "RA_OF_ASC_NODE": 157.0072, "ARG_OF_PERICENTER": 226.4701, "MEAN_ANOMALY": 132.8778, "EPHEMERIS_TYPE": 0, "CLASSIFICATION_TYPE": "U", "NORAD_CAT_ID": 39533, "ELEMENT_SET_NO": 999, "REV_AT_EPOCH": 8590, "BSTAR": 0, "MEAN_MOTION_DOT": 7.7e-07, "MEAN_MOTION_DDOT": 0}, "tle": {"line1": "1 39533U 14008A   25344.71496028  .00000077  00000+0  00000+0 0  9993", "line2": "2 39533  53.6310 157.0072 0079158 226.4701 132.8778  2.00574306 85902"}}, "geometry": {"type": "Point", "coordinates": [154.91416450732635, -2.8006916594430087]}}, {"type": "Feature", "properties": {"norad_id": 39617, "name": "ASTRA 5B (EGNOS/PRN 123)", "group": "gnss", "lat": 0.029072757701150788, "lon": 178.71159055262953, "alt_km": 35784.64237214338, "timestamp": "2025-12-11T05:00:26.551849+00:00", "meta": {"OBJECT_NAME": "ASTRA 5B (EGNOS/PRN 123)", "OBJECT_ID": "2014-011B", "EPOCH": "2025-12-10T21:27:38.786688", "MEAN_MOTION": 1.00271377, "ECCENTRICITY": 0.00044489, "INCLINATION": 0.0581, "RA_OF_ASC_NODE": 34.6018, "ARG_OF_PERICENTER": 229.5614, "MEAN_ANOMALY": 161.0945, "EPHEMERIS_TYPE": 0, "CLASSIFICATION_TYPE": "U", "NORAD_CAT_ID": 39617, "ELEMENT_SET_NO": 999, "REV_AT_EPOCH": 4277, "BSTAR": 0, "MEAN_MOTION_DOT": 1.42e-06, "MEAN_MOTION_DDOT": 0}, "tle": {"line1": "1 39617U 14011B   25344.89419892  .00000142  00000+0  00000+0 0  9996", "line2": "2 39617   0.0581  34.6018 0004448 229.5614 161.0945  1.00271377 42777"}}, "geometry": {"type": "Point", "coordinates": [178.71159055262953, 0.029072757701150788]}}]}